[{"OBJECT_NAME":"CAS-2T & KS-1Q","OBJECT_ID":"2016-066G","EPOCH":"2026-03-09T16:58:07.740192","MEAN_MOTION":14.44469485,"ECCENTRICITY":0.03436678,"INCLINATION":98.388,"RA_OF_ASC_NODE":145.5568,"ARG_OF_PERICENTER":71.4405,"MEAN_ANOMALY":292.3791,"EPHEMERIS_TYPE":0,"CLASSIFICATION_TYPE":"U","NORAD_CAT_ID":41847,"ELEMENT_SET_NO":999,"REV_AT_EPOCH":49043,"BSTAR":0.00023398968,"MEAN_MOTION_DOT":1.617e-5,"MEAN_MOTION_DDOT":0},{"OBJECT_NAME":"UNKNOWN","OBJECT_ID":"","EPOCH":"2026-03-07T05:13:54.606432","MEAN_MOTION":13.99790623,"ECCENTRICITY":0.00265,"INCLINATION":100.1022,"RA_OF_ASC_NODE":62.2322,"ARG_OF_PERICENTER":68.0932,"MEAN_ANOMALY":292.3042,"EPHEMERIS_TYPE":0,"CLASSIFICATION_TYPE":"U","NORAD_CAT_ID":87300,"ELEMENT_SET_NO":999,"REV_AT_EPOCH":62493,"BSTAR":0.001376,"MEAN_MOTION_DOT":1.971e-5,"MEAN_MOTION_DDOT":0}]
